{
  "norad_id": 67061,
  "name": "HULIANWANG DIGUI-121",
  "history": [
    {
      "epoch": "2026-03-28T20:33:27.241056",
      "apogee_km": 1149.3870336431855,
      "perigee_km": 1149.251689977801,
      "latitude_deg": 49.189712433753215,
      "longitude_deg": -111.66973215993494,
      "semi_major_axis_km": 7527.456361810493,
      "eccentricity": 8.99e-06,
      "inclination_deg": 50.001,
      "raan_deg": 313.786,
      "arg_perigee_deg": 129.8173,
      "mean_anomaly_deg": 230.2707,
      "mean_motion_rev_day": 13.29322612
    },
    {
      "epoch": "2026-03-29T03:46:29.324640",
      "apogee_km": 1149.3883954521561,
      "perigee_km": 1149.2498902591278,
      "latitude_deg": 13.793697427569393,
      "longitude_deg": -82.80075039993972,
      "semi_major_axis_km": 7527.456142855642,
      "eccentricity": 9.2e-06,
      "inclination_deg": 50.0009,
      "raan_deg": 312.7075,
      "arg_perigee_deg": 127.899,
      "mean_anomaly_deg": 232.189,
      "mean_motion_rev_day": 13.2932267
    }
  ]
}